AAUSAT 4                
1 41460U 16025E   22338.10366285  .00022604  00000+0  71402-3 0  9998
2 41460  98.1778 164.5394 0108354  21.6320  95.6269 15.27205836363754
BEESAT-4                
1 41619U 16040W   22337.37976821  .00018201  00000+0  50675-3 0  9999
2 41619  97.1953  23.8517 0006770 221.0597 139.0139 15.36837195346613
RAVAN                   
1 41849U 16067B   22338.14093015  .00004427  00000+0  34102-3 0  9996
2 41849  98.0144 120.3204 0018059 123.6929 236.6020 15.02069980331456
CELTEE 1                
1 41850U 16067C   22337.61851187  .00001945  00000+0  16434-3 0  9991
2 41850  98.0229 114.2171 0009065 119.2622 240.9507 14.99317543331099
OPTICUBE 04             
1 41851U 16067D   22337.62225470  .00000769  00000+0  69850-4 0  9997
2 41851  98.0202 113.0306 0009172 129.9728 230.2301 14.98336964331037
AEROCUBE 8D             
1 41852U 16067E   22338.08155351  .00002408  00000+0  20202-3 0  9998
2 41852  98.0205 113.6786 0009813 121.5769 238.6412 14.99333640331106
AEROCUBE 8C             
1 41853U 16067F   22338.13277173  .00003426  00000+0  28542-3 0  9998
2 41853  98.0170 113.5287 0012028 127.0770 233.1553 14.99294145331100
PROMETHEUS 2-1          
1 41854U 16067G   22337.87466662  .00005273  00000+0  41524-3 0  9999
2 41854  98.0357 114.8143 0017072 145.1235 215.1110 15.01145623331147
PROMETHEUS 2-3          
1 41855U 16067H   22338.13232490  .00005090  00000+0  40139-3 0  9998
2 41855  98.0339 115.1346 0013390 160.1091 200.0657 15.01152418331186
INS-1B                  
1 41954U 17008G   22338.07004190  .00016114  00000+0  44874-3 0  9990
2 41954  97.2364  34.7704 0006286   0.8583 359.2672 15.36860002322740
BGUSAT                  
1 41999U 17008BD  22337.74697001  .00073849  00000+0  10035-2 0  9990
2 41999  97.2612  48.8855 0002065 335.2894  24.8262 15.57360080322811
DIDO-2                  
1 42000U 17008BE  22337.12526859  .00008059  00000+0  26914-3 0  9993
2 42000  97.2361  32.2292 0007658  30.6127 329.5560 15.31263125321859
PEASSS                  
1 42015U 17008BV  22337.72139888  .00013995  00000+0  39793-3 0  9991
2 42015  97.2429  37.7333 0004957  23.6653 336.4818 15.36248252322719
AL-FARABI 1             
1 42016U 17008BW  22337.71990529  .00021648  00000+0  51997-3 0  9992
2 42016  97.2498  41.8342 0003861  21.0971 339.0435 15.41354762323052
NAYIF-1 (EO-88)         
1 42017U 17008BX  22338.10444826  .00022744  00000+0  54110-3 0  9999
2 42017  97.2491  42.2566 0004049  15.6830 344.4542 15.41633699323149
UCLSAT                  
1 42765U 17036A   22337.84717748  .00014418  00000+0  43306-3 0  9990
2 42765  97.1767  15.4782 0010319  79.3404 280.9001 15.34473806303783
LITUANICASAT-2          
1 42768U 17036D   22337.70048434  .00042947  00000+0  83241-3 0  9997
2 42768  97.1829  20.3395 0009223  59.1555 301.0602 15.47529441303306
AALTO-1                 
1 42775U 17036L   22337.85691071  .00007392  00000+0  27062-3 0  9996
2 42775  97.1794   9.3492 0013625  85.5630 274.7167 15.28226373302621
URSA MAIOR              
1 42776U 17036M   22337.82826847  .00008453  00000+0  30122-3 0  9995
2 42776  97.1806  10.2480 0013249  84.0289 276.2461 15.29076231302665
COMPASS 2               
1 42777U 17036N   22337.84841181  .00024682  00000+0  61728-3 0  9994
2 42777  97.1832  18.6721 0009843  66.5519 293.6762 15.40058824303143
DIAMOND RED             
1 42783U 17036U   22337.83628682  .00009506  00000+0  32171-3 0  9997
2 42783  97.1805  12.9440 0011575  87.0226 273.2340 15.30741147302829
PEGASUS                 
1 42784U 17036V   22337.62496767  .00012083  00000+0  37910-3 0  9992
2 42784  97.1795  14.3131 0011065  84.0056 276.2447 15.33119874302890
DIAMOND GREEN           
1 42785U 17036W   22338.09625231  .00009889  00000+0  33340-3 0  9998
2 42785  97.1806  13.2656 0011360  87.7669 272.4873 15.30854656302850
DIAMOND BLUE            
1 42786U 17036X   22338.09607319  .00009710  00000+0  32780-3 0  9996
2 42786  97.1808  13.2562 0011466  87.6713 272.5842 15.30817086302858
NUDTSAT                 
1 42787U 17036Y   22337.95630047  .00030489  00000+0  71616-3 0  9993
2 42787  97.1794  20.3631 0008790  69.0686 291.1502 15.41928560303132
SUCHAI                  
1 42788U 17036Z   22338.09178697  .00016224  00000+0  46235-3 0  9998
2 42788  97.1793  16.9637 0010058  76.1852 284.0511 15.36104795303178
SKCUBE                  
1 42789U 17036AA  22337.67652412  .00014487  00000+0  43165-3 0  9992
2 42789  97.1793  15.7761 0010290  78.9324 281.3076 15.34727164302989
VZLUSAT-1               
1 42790U 17036AB  22337.66424131  .00027515  00000+0  65493-3 0  9992
2 42790  97.1807  19.9900 0008466  69.4334 290.7820 15.41551508303231
ROBUSTA 1B              
1 42792U 17036AD  22337.62194504  .00015452  00000+0  44690-3 0  9991
2 42792  97.1790  16.4523 0009786  78.5301 281.7042 15.35654454303039
CICERO 6                
1 42793U 17036AE  22337.68277278  .00008116  00000+0  27854-3 0  9990
2 42793  97.1785  13.2486 0010243  87.4413 272.8001 15.30348047302926
CORVUS BC2              
1 42846U 17042X   22338.03363682  .00001010  00000+0  10106-3 0  9999
2 42846  97.4001 185.6033 0010111 140.5953 219.6005 14.93405668293580
CORVUS BC1              
1 42847U 17042Y   22338.03650502  .00001028  00000+0  10260-3 0  9990
2 42847  97.4003 185.9380 0009837 139.3237 220.8720 14.93483365293594
MIRATA                  
1 43015U 17073C   22337.67470144  .00008515  00000+0  59470-3 0  9997
2 43015  97.6546 226.7586 0230331 344.1356  15.2726 14.86542603272380
MAKERSAT 0              
1 43016U 17073D   22337.66601944  .00006354  00000+0  45999-3 0  9991
2 43016  97.6554 225.8542 0239841 350.1640   9.4922 14.84047298272279
CORVUS BC3              
1 43118U 18004H   22337.78909012  .00007697  00000+0  26568-3 0  9991
2 43118  97.3473  48.4365 0010038 118.8812 241.3437 15.30191507272088
MICROMAS-2A             
1 43131U 18004W   22337.75642360  .00038684  00000+0  76464-3 0  9993
2 43131  97.3617  58.3615 0005656 101.7725 258.4159 15.47011667272643
SPACEBEE-4              
1 43139U 18004AE  22338.11763766  .00455180  00000+0  17981-2 0  9998
2 43139  97.3635  67.9202 0003257 285.8265  74.2647 15.85675380273228
CICERO 7                
1 43143U 18004AJ  22337.82775958  .00014022  00000+0  36028-3 0  9996
2 43143  97.3616  56.8076 0006512 109.7782 250.4166 15.39384463272572
GOMX-4B                 
1 43196U 18015E   22337.88539494  .00007313  00000+0  25710-3 0  9996
2 43196  97.5544 119.3667 0016638 174.9283 185.2128 15.29545195269033
GOMX-4A                 
1 43197U 18015F   22338.10829345  .00009332  00000+0  30666-3 0  9999
2 43197  97.5541 120.8839 0016351 172.3114 245.0959 15.31654618269161
AEROCUBE 12A            
1 43556U 18046C   22337.76715476  .00029737  00000+0  57022-3 0  9998
2 43556  51.6341  74.1334 0007759 294.9323  65.0858 15.47719760245456
AEROCUBE 12B            
1 43557U 18046D   22337.68402221  .00018609  00000+0  41436-3 0  9999
2 43557  51.6362  82.4822 0007542 288.2452  71.7714 15.43630936245282
SURFSAT                 
1 43614U 18070B   22338.04040137  .00113432  00000+0  70328-3 0  9997
2 43614  93.0003 171.3489 0008398  56.9476 303.2604 15.76672010237558
CP7 (DAVE)              
1 43615U 18070C   22338.04464535  .00079885  00000+0  61133-3 0  9997
2 43615  92.9994 170.9324 0009727  61.4074 298.8175 15.71839725237488
CUBEBEL-1 (BSUSAT-1)    
1 43666U 18083E   22338.10825983  .00012134  00000+0  46301-3 0  9996
2 43666  97.4062   5.0966 0013992  93.0095 353.9983 15.26719425227330
CICERO 10               
1 43690U 18088A   22337.66766528  .00009005  00000+0  32792-3 0  9999
2 43690  85.0378 203.8041 0010095 237.3455 122.6817 15.28002229225565
IRVINE01                
1 43693U 18088D   22337.85816910  .00095780  00000+0  12091-2 0  9998
2 43693  85.0222 194.6244 0004827 139.6113 220.5508 15.59227889226380
PROXIMA I               
1 43694U 18088E   22337.63603464  .00008608  00000+0  29666-3 0  9993
2 43694  85.0305 200.0787 0014068 199.5430 160.5279 15.29746248225808
PROXIMA II              
1 43696U 18088G   22337.63963251  .00008582  00000+0  29616-3 0  9994
2 43696  85.0308 200.1034 0014173 199.5506 160.5198 15.29698620225798
FACSAT-1                
1 43721U 18096C   22338.19704985  .00033778  00000+0  72275-3 0  9995
2 43721  97.3370  58.5648 0012445 157.6084 286.4918 15.44650041224096
CENTAURI-2              
1 43722U 18096D   22337.72355115  .00051855  00000+0  84605-3 0  9997
2 43722  97.3421  61.4072 0010062 154.0961 206.0797 15.52378318224205
INNOSAT-2               
1 43738U 18096V   22338.19419167  .01384092  13278-2  14285-2 0  9997
2 43738  97.3492  74.1544 0007854 258.1952 137.6223 16.10943767225032
SIRION PATHFINDER-2     
1 43759U 18099B   22338.12553259  .00002240  00000+0  19909-3 0  9993
2 43759  97.6016  40.3359 0014985  56.7144 303.5511 14.97016247218423
CORVUS BC4              
1 43767U 18099K   22337.81291791  .00001328  00000+0  12192-3 0  9990
2 43767  97.5970  38.2895 0012727  62.8265 297.4253 14.96429351218297
MOVE-II                 
1 43780U 18099Y   22337.83637848  .00003882  00000+0  32211-3 0  9995
2 43780  97.6056  41.3079 0012090  62.2247 298.0201 14.99304970218421
SPACEBEE-7              
1 43816U 18099BL  22337.84790101  .00003403  00000+0  28596-3 0  9998
2 43816  97.6077  42.0281 0012561  49.6144 310.6173 14.98902526218019
SPACEBEE-5              
1 43817U 18099BM  22337.80662150  .00010604  00000+0  75544-3 0  9993
2 43817  97.6194  46.2004 0005513  50.2605 309.9106 15.04764448218203
SPACEBEE-6              
1 43818U 18099BN  22338.12843244  .00005397  00000+0  43140-3 0  9995
2 43818  97.6112  43.5738 0017131  53.5856 306.6944 15.00526693218265
SHIELDS 1               
1 43850U 18104B   22337.89150690  .00004525  00000+0  17966-3 0  9996
2 43850  85.0256 299.6781 0014087  12.1577 348.0004 15.24953712220319
